SL-8 R/B                
1 03230U 68040B   17345.87139147  .00000175  00000-0  21922-4 0  9999
2 03230  74.0364 247.5583 0029921 154.7163 205.5491 14.90266640661982
